[{"OBJECT_NAME":"STARLINK-34585","OBJECT_ID":"2025-147AA","EPOCH":"2026-03-09T18:05:33.386496","MEAN_MOTION":15.30193722,"ECCENTRICITY":0.0001063,"INCLINATION":53.159,"RA_OF_ASC_NODE":242.2993,"ARG_OF_PERICENTER":82.9782,"MEAN_ANOMALY":277.134,"EPHEMERIS_TYPE":0,"CLASSIFICATION_TYPE":"U","NORAD_CAT_ID":64779,"ELEMENT_SET_NO":999,"REV_AT_EPOCH":3871,"BSTAR":0.00070632141,"MEAN_MOTION_DOT":0.00020614,"MEAN_MOTION_DDOT":0},{"OBJECT_NAME":"USA 24","OBJECT_ID":"1987-043F","EPOCH":"2026-03-09T22:20:48.799968","MEAN_MOTION":13.84752929,"ECCENTRICITY":0.07971297,"INCLINATION":63.2957,"RA_OF_ASC_NODE":276.5953,"ARG_OF_PERICENTER":102.7417,"MEAN_ANOMALY":266.3854,"EPHEMERIS_TYPE":0,"CLASSIFICATION_TYPE":"U","NORAD_CAT_ID":18010,"ELEMENT_SET_NO":999,"REV_AT_EPOCH":33170,"BSTAR":0.00081528793,"MEAN_MOTION_DOT":0.00014135,"MEAN_MOTION_DDOT":0}]
